{
  "type": "FeatureCollection",
  "features": [
    {
      "type": "Feature",
      "properties": {
        "norad_id": 34079,
        "name": "IRIDIUM 33 DEB",
        "group": "iridium-33-debris",
        "lat": 0.19148613558810992,
        "lon": 10.719568725674668,
        "alt_km": 617.834143865598,
        "timestamp": "2025-12-08T05:48:09.418645+00:00",
        "meta_object_name": "IRIDIUM 33 DEB",
        "meta_object_id": "1997-051CN",
        "meta_epoch": "2025-12-07T20:52:32.558592",
        "meta_mean_motion": 14.83340445,
        "meta_eccentricity": 0.00061753,
        "meta_inclination": 86.3774,
        "meta_ra_of_asc_node": 10.8765,
        "meta_arg_of_pericenter": 23.6265,
        "meta_mean_anomaly": 151.7698,
        "meta_ephemeris_type": 0,
        "meta_classification_type": "U",
        "meta_norad_cat_id": 34079,
        "meta_element_set_no": 999,
        "meta_rev_at_epoch": 88905,
        "meta_bstar": 0.0027063735,
        "meta_mean_motion_dot": 0.00022246,
        "meta_mean_motion_ddot": 0,
        "tle_line1": "1 34079U 97051CN  25341.86982128  .00022246  00000+0  27064-2 0  9990",
        "tle_line2": "2 34079  86.3774  10.8765 0006175  23.6265 151.7698 14.83340445889053"
      },
      "geometry": {
        "type": "Point",
        "coordinates": [
          10.719568725674668,
          0.19148613558810992
        ]
      }
    },
    {
      "type": "Feature",
      "properties": {
        "norad_id": 34088,
        "name": "IRIDIUM 33 DEB",
        "group": "iridium-33-debris",
        "lat": -34.094915525709276,
        "lon": 30.337490583883667,
        "alt_km": 603.439986248367,
        "timestamp": "2025-12-08T05:48:09.418656+00:00",
        "meta_object_name": "IRIDIUM 33 DEB",
        "meta_object_id": "1997-051CX",
        "meta_epoch": "2025-12-07T15:59:55.064256",
        "meta_mean_motion": 14.91020771,
        "meta_eccentricity": 0.0005328,
        "meta_inclination": 86.3847,
        "meta_ra_of_asc_node": 33.0545,
        "meta_arg_of_pericenter": 195.781,
        "meta_mean_anomaly": 284.8122,
        "meta_ephemeris_type": 0,
        "meta_classification_type": "U",
        "meta_norad_cat_id": 34088,
        "meta_element_set_no": 999,
        "meta_rev_at_epoch": 88666,
        "meta_bstar": 0.0039560739,
        "meta_mean_motion_dot": 0.00039325,
        "meta_mean_motion_ddot": 0,
        "tle_line1": "1 34088U 97051CX  25341.66660954  .00039325  00000+0  39561-2 0  9999",
        "tle_line2": "2 34088  86.3847  33.0545 0005328 195.7810 284.8122 14.91020771886663"
      },
      "geometry": {
        "type": "Point",
        "coordinates": [
          30.337490583883667,
          -34.094915525709276
        ]
      }
    },
    {
      "type": "Feature",
      "properties": {
        "norad_id": 34091,
        "name": "IRIDIUM 33 DEB",
        "group": "iridium-33-debris",
        "lat": -52.29187862452348,
        "lon": 64.14683669043471,
        "alt_km": 609.0927663895873,
        "timestamp": "2025-12-08T05:48:09.418666+00:00",
        "meta_object_name": "IRIDIUM 33 DEB",
        "meta_object_id": "1997-051DA",
        "meta_epoch": "2025-12-07T17:04:02.135712",
        "meta_mean_motion": 14.81237969,
        "meta_eccentricity": 0.00331325,
        "meta_inclination": 86.3419,
        "meta_ra_of_asc_node": 69.1363,
        "meta_arg_of_pericenter": 311.2818,
        "meta_mean_anomaly": 48.5552,
        "meta_ephemeris_type": 0,
        "meta_classification_type": "U",
        "meta_norad_cat_id": 34091,
        "meta_element_set_no": 999,
        "meta_rev_at_epoch": 87792,
        "meta_bstar": 0.007996222,
        "meta_mean_motion_dot": 0.00063385,
        "meta_mean_motion_ddot": 0,
        "tle_line1": "1 34091U 97051DA  25341.71113583  .00063385  00000+0  79962-2 0  9992",
        "tle_line2": "2 34091  86.3419  69.1363 0033132 311.2818  48.5552 14.81237969877926"
      },
      "geometry": {
        "type": "Point",
        "coordinates": [
          64.14683669043471,
          -52.29187862452348
        ]
      }
    },
    {
      "type": "Feature",
      "properties": {
        "norad_id": 34097,
        "name": "IRIDIUM 33 DEB",
        "group": "iridium-33-debris",
        "lat": -51.942872428121795,
        "lon": -171.73698506883696,
        "alt_km": 831.462218187693,
        "timestamp": "2025-12-08T05:48:09.418676+00:00",
        "meta_object_name": "IRIDIUM 33 DEB",
        "meta_object_id": "1997-051DG",
        "meta_epoch": "2025-12-07T18:40:48.134496",
        "meta_mean_motion": 14.3471964,
        "meta_eccentricity": 0.00831758,
        "meta_inclination": 86.1998,
        "meta_ra_of_asc_node": 3.5973,
        "meta_arg_of_pericenter": 18.3054,
        "meta_mean_anomaly": 342.1104,
        "meta_ephemeris_type": 0,
        "meta_classification_type": "U",
        "meta_norad_cat_id": 34097,
        "meta_element_set_no": 999,
        "meta_rev_at_epoch": 87048,
        "meta_bstar": 0.0022730576,
        "meta_mean_motion_dot": 6.712e-05,
        "meta_mean_motion_ddot": 0,
        "tle_line1": "1 34097U 97051DG  25341.77833489  .00006712  00000+0  22731-2 0  9991",
        "tle_line2": "2 34097  86.1998   3.5973 0083175  18.3054 342.1104 14.34719640870489"
      },
      "geometry": {
        "type": "Point",
        "coordinates": [
          -171.73698506883696,
          -51.942872428121795
        ]
      }
    },
    {
      "type": "Feature",
      "properties": {
        "norad_id": 34145,
        "name": "IRIDIUM 33 DEB",
        "group": "iridium-33-debris",
        "lat": 19.550593293508772,
        "lon": -24.122261477028097,
        "alt_km": 749.9845200681275,
        "timestamp": "2025-12-08T05:48:09.418686+00:00",
        "meta_object_name": "IRIDIUM 33 DEB",
        "meta_object_id": "1997-051DY",
        "meta_epoch": "2025-12-07T23:03:04.751424",
        "meta_mean_motion": 14.42235871,
        "meta_eccentricity": 0.0055559,
        "meta_inclination": 86.2113,
        "meta_ra_of_asc_node": 334.6546,
        "meta_arg_of_pericenter": 109.0134,
        "meta_mean_anomaly": 251.7097,
        "meta_ephemeris_type": 0,
        "meta_classification_type": "U",
        "meta_norad_cat_id": 34145,
        "meta_element_set_no": 999,
        "meta_rev_at_epoch": 87569,
        "meta_bstar": 0.0013920574,
        "meta_mean_motion_dot": 4.693e-05,
        "meta_mean_motion_ddot": 0,
        "tle_line1": "1 34145U 97051DY  25341.96047166  .00004693  00000+0  13921-2 0  9992",
        "tle_line2": "2 34145  86.2113 334.6546 0055559 109.0134 251.7097 14.42235871875691"
      },
      "geometry": {
        "type": "Point",
        "coordinates": [
          -24.122261477028097,
          19.550593293508772
        ]
      }
    },
    {
      "type": "Feature",
      "properties": {
        "norad_id": 34146,
        "name": "IRIDIUM 33 DEB",
        "group": "iridium-33-debris",
        "lat": -86.105634641255,
        "lon": -115.49619269187073,
        "alt_km": 721.0606557752462,
        "timestamp": "2025-12-08T05:48:09.418696+00:00",
        "meta_object_name": "IRIDIUM 33 DEB",
        "meta_object_id": "1997-051DZ",
        "meta_epoch": "2025-12-07T23:41:17.071296",
        "meta_mean_motion": 14.48997884,
        "meta_eccentricity": 0.00251435,
        "meta_inclination": 86.2834,
        "meta_ra_of_asc_node": 351.8998,
        "meta_arg_of_pericenter": 238.5733,
        "meta_mean_anomaly": 141.9749,
        "meta_ephemeris_type": 0,
        "meta_classification_type": "U",
        "meta_norad_cat_id": 34146,
        "meta_element_set_no": 999,
        "meta_rev_at_epoch": 88038,
        "meta_bstar": 0.0012899771,
        "meta_mean_motion_dot": 4.929e-05,
        "meta_mean_motion_ddot": 0,
        "tle_line1": "1 34146U 97051DZ  25341.98700314  .00004929  00000+0  12900-2 0  9994",
        "tle_line2": "2 34146  86.2834 351.8998 0025143 238.5733 141.9749 14.48997884880384"
      },
      "geometry": {
        "type": "Point",
        "coordinates": [
          -115.49619269187073,
          -86.105634641255
        ]
      }
    },
    {
      "type": "Feature",
      "properties": {
        "norad_id": 34159,
        "name": "IRIDIUM 33 DEB",
        "group": "iridium-33-debris",
        "lat": 26.047807952396436,
        "lon": -131.62778342067662,
        "alt_km": 778.845729586179,
        "timestamp": "2025-12-08T05:48:09.418706+00:00",
        "meta_object_name": "IRIDIUM 33 DEB",
        "meta_object_id": "1997-051EN",
        "meta_epoch": "2025-12-07T22:24:36.579744",
        "meta_mean_motion": 14.38475158,
        "meta_eccentricity": 0.0026103,
        "meta_inclination": 86.3515,
        "meta_ra_of_asc_node": 50.2906,
        "meta_arg_of_pericenter": 304.7744,
        "meta_mean_anomaly": 55.0997,
        "meta_ephemeris_type": 0,
        "meta_classification_type": "U",
        "meta_norad_cat_id": 34159,
        "meta_element_set_no": 999,
        "meta_rev_at_epoch": 87890,
        "meta_bstar": 0.00059598171,
        "meta_mean_motion_dot": 1.845e-05,
        "meta_mean_motion_ddot": 0,
        "tle_line1": "1 34159U 97051EN  25341.93375671  .00001845  00000+0  59598-3 0  9996",
        "tle_line2": "2 34159  86.3515  50.2906 0026103 304.7744  55.0997 14.38475158878908"
      },
      "geometry": {
        "type": "Point",
        "coordinates": [
          -131.62778342067662,
          26.047807952396436
        ]
      }
    }
  ]
}